{
    "links": {
        "self": "http://www.neowsapp.com/rest/v1/neo/3838019?api_key=iIulBulltgU6a56xZRHN4H3l9WmuAYTsLGpBGhQ2"
    },
    "id": "3838019",
    "neo_reference_id": "3838019",
    "name": "(2019 BU2)",
    "designation": "2019 BU2",
    "nasa_jpl_url": "http://ssd.jpl.nasa.gov/sbdb.cgi?sstr=3838019",
    "absolute_magnitude_h": 25.4,
    "estimated_diameter": {
        "kilometers": {
            "estimated_diameter_min": 0.022108281,
            "estimated_diameter_max": 0.0494356193
        },
        "meters": {
            "estimated_diameter_min": 22.1082810359,
            "estimated_diameter_max": 49.435619262
        },
        "miles": {
            "estimated_diameter_min": 0.0137374447,
            "estimated_diameter_max": 0.0307178602
        },
        "feet": {
            "estimated_diameter_min": 72.5337327539,
            "estimated_diameter_max": 162.1903570994
        }
    },
    "is_potentially_hazardous_asteroid": false,
    "close_approach_data": [
        {
            "close_approach_date": "1978-10-16",
            "close_approach_date_full": "1978-Oct-16 20:08",
            "epoch_date_close_approach": 277416480000,
            "relative_velocity": {
                "kilometers_per_second": "18.8313559896",
                "kilometers_per_hour": "67792.8815624102",
                "miles_per_hour": "42123.8602130432"
            },
            "miss_distance": {
                "astronomical": "0.4658266605",
                "lunar": "181.2065709345",
                "kilometers": "69686676.200013135",
                "miles": "43301292.683065863"
            },
            "orbiting_body": "Earth"
        },
        {
            "close_approach_date": "2019-01-23",
            "close_approach_date_full": "2019-Jan-23 03:29",
            "epoch_date_close_approach": 1548214140000,
            "relative_velocity": {
                "kilometers_per_second": "8.7509665784",
                "kilometers_per_hour": "31503.4796821267",
                "miles_per_hour": "19575.0371391526"
            },
            "miss_distance": {
                "astronomical": "0.0236953758",
                "lunar": "9.2175011862",
                "kilometers": "3544777.748529546",
                "miles": "2202622.7559618948"
            },
            "orbiting_body": "Earth"
        }
    ],
    "orbital_data": {
        "orbit_id": "3",
        "orbit_determination_date": "2019-02-03 07:04:27",
        "first_observation_date": "2019-01-22",
        "last_observation_date": "2019-01-29",
        "data_arc_in_days": 7,
        "observations_used": 23,
        "orbit_uncertainty": "8",
        "minimum_orbit_intersection": ".0178305",
        "jupiter_tisserand_invariant": "4.464",
        "epoch_osculation": "2458509.5",
        "eccentricity": ".3573795663305986",
        "semi_major_axis": "1.495377758534016",
        "inclination": "10.62959321630928",
        "ascending_node_longitude": "123.8456913568136",
        "orbital_period": "667.9205446766446",
        "perihelion_distance": ".9609603036887068",
        "perihelion_argument": "325.7399067697547",
        "aphelion_distance": "2.029795213379325",
        "perihelion_time": "2458479.593766430842",
        "mean_anomaly": "16.11904914544748",
        "mean_motion": ".5389862654610873",
        "equinox": "J2000",
        "orbit_class": {
            "orbit_class_type": "APO",
            "orbit_class_description": "Near-Earth asteroid orbits which cross the Earth’s orbit similar to that of 1862 Apollo",
            "orbit_class_range": "a (semi-major axis) > 1.0 AU; q (perihelion) < 1.017 AU"
        }
    },
    "is_sentry_object": false
}